     2.100          NAVIGATION                              RINEX VERSION / TYPE
fic2rin                                 03/23/2011 00:04:02 PGM / RUN BY / DATE
                                                            END OF HEADER
12 11  3 22  6  0  0.0 -.175149179995D-04  .284217094304D-11  .000000000000D+00
     .870000000000D+02  .294687500000D+02  .451697386438D-08 -.234185535339D-01
     .153668224812D-05  .369236746337D-02  .810995697975D-05  .515378014565D+04
     .194400000000D+06  .186264514923D-07 -.181844127608D+01 -.670552253723D-07
     .974067123931D+00  .233625000000D+03 -.261950728625D+00 -.805033532878D-08
     .598953520247D-09  .100000000000D+01  .162800000000D+04  .000000000000D+00
     .240000000000D+01  .000000000000D+00 -.121071934700D-07  .870000000000D+02
     .187206000000D+06  .400000000000D+01
13 11  3 22  6  0  0.0  .278128311038D-03 -.147792889038D-11  .000000000000D+00
     .300000000000D+02 -.763437500000D+02  .412802909184D-08  .244788128038D+01
    -.390969216824D-05  .463492935523D-02  .253133475780D-05  .515362440681D+04
     .194400000000D+06  .186264514923D-07  .243478414493D+01  .502914190292D-07
     .990233047501D+00  .345656250000D+03  .179551403041D+01 -.815355391396D-08
    -.299298181256D-09  .100000000000D+01  .162800000000D+04  .000000000000D+00
     .240000000000D+01  .000000000000D+00 -.111758708954D-07  .300000000000D+02
     .187206000000D+06  .400000000000D+01
14 11  3 22  6  0  0.0  .139078591019D-03  .238742359215D-11  .000000000000D+00
     .610000000000D+02 -.736562500000D+02  .417695970142D-08  .242511365663D+01
    -.375136733055D-05  .560458039399D-02  .286661088467D-05  .515364144707D+04
     .194400000000D+06  .260770320892D-07  .241101931576D+01 -.141561031342D-06
     .983288903073D+00  .334718750000D+03 -.209075632871D+01 -.810748056625D-08
    -.213223167315D-09  .100000000000D+01  .162800000000D+04  .000000000000D+00
     .240000000000D+01  .000000000000D+00 -.884756445885D-08  .610000000000D+02
     .187206000000D+06  .400000000000D+01
15 11  3 22  6  0  0.0 -.141388736665D-03  .306954461848D-11  .000000000000D+00
     .107000000000D+03 -.501250000000D+02  .505021036153D-08  .202902962681D+01
    -.259093940258D-05  .339509779587D-02  .173784792423D-05  .515358760071D+04
     .194400000000D+06  .465661287308D-07  .233736092380D+01  .614672899246D-07
     .950476288387D+00  .340312500000D+03 -.717943110241D-01 -.864464579848D-08
    -.202508435289D-09  .100000000000D+01  .162800000000D+04  .000000000000D+00
     .240000000000D+01  .000000000000D+00 -.977888703346D-08  .107000000000D+03
     .187206000000D+06  .400000000000D+01
16 11  3 22  6  0  0.0 -.159472692758D-03 -.284217094304D-11  .000000000000D+00
     .107000000000D+03  .418125000000D+02  .449054419205D-08 -.239547912175D+01
     .213645398617D-05  .628727080766D-02  .853836536407D-05  .515376554871D+04
     .194400000000D+06 -.126659870148D-06 -.180066932739D+01 -.558793544769D-08
     .975105849895D+00  .225781250000D+03 -.157892890198D+00 -.794068790438D-08
     .688957269264D-09  .100000000000D+01  .162800000000D+04  .000000000000D+00
     .240000000000D+01  .000000000000D+00 -.977888703346D-08  .107000000000D+03
     .187206000000D+06  .400000000000D+01
17 11  3 22  6  0  0.0  .184058677405D-03  .227373675443D-12  .000000000000D+00
     .430000000000D+02 -.410625000000D+02  .495556356197D-08  .280306755106D+01
    -.221095979214D-05  .619954371359D-02  .565499067307D-05  .515372323036D+04
     .194400000000D+06 -.223517417908D-07 -.757467622333D+00 -.912696123123D-07
     .960998709956D+00  .268937500000D+03 -.242282040234D+01 -.817641200895D-08
    -.388587614805D-09  .100000000000D+01  .162800000000D+04  .000000000000D+00
     .240000000000D+01  .000000000000D+00 -.102445483208D-07  .430000000000D+02
     .187206000000D+06  .400000000000D+01
18 11  3 22  6  0  0.0  .127771403641D-03  .204636307899D-11  .000000000000D+00
     .580000000000D+02  .125687500000D+03  .506949687918D-08 -.212406518277D+01
     .644288957119D-05  .120019128080D-01  .508874654770D-05  .515377152634D+04
     .194400000000D+06  .707805156708D-07  .132525473187D+01 -.137835741043D-06
     .933550016071D+00  .268656250000D+03 -.226932361608D+01 -.831213194795D-08
     .391444876679D-09  .100000000000D+01  .162800000000D+04  .000000000000D+00
     .240000000000D+01  .000000000000D+00 -.107102096081D-07  .580000000000D+02
     .187206000000D+06  .400000000000D+01
19 11  3 22  6  0  0.0 -.122630968690D-03 -.386535248253D-11  .000000000000D+00
     .920000000000D+02 -.449375000000D+02  .509199781643D-08  .211271510066D+01
    -.216811895370D-05  .711538316682D-02  .610761344433D-05  .515362686729D+04
     .194400000000D+06 -.521540641785D-07 -.703238540891D+00  .199303030968D-06
     .958574037348D+00  .261406250000D+03 -.899583875851D-02 -.830213153139D-08
    -.489663253583D-09  .100000000000D+01  .162800000000D+04  .000000000000D+00
     .240000000000D+01  .000000000000D+00 -.149011611938D-07  .920000000000D+02
     .187206000000D+06  .400000000000D+01
20 11  3 22  6  0  0.0  .487403012812D-04  .113686837722D-12  .000000000000D+00
     .830000000000D+02  .149843750000D+03  .515021452711D-08 -.174009238400D+01
     .773370265961D-05  .470600498375D-02  .628829002380D-05  .515370656967D+04
     .194400000000D+06  .149011611938D-06  .127129569633D+01  .316649675369D-07
     .933696916453D+00  .243937500000D+03  .127887739216D+01 -.854714173705D-08
     .329299430929D-09  .100000000000D+01  .162800000000D+04  .000000000000D+00
     .240000000000D+01  .000000000000D+00 -.791624188423D-08  .830000000000D+02
     .187206000000D+06  .400000000000D+01
21 11  3 22  6  0  0.0 -.132081564516D-03 -.261479726760D-11  .000000000000D+00
     .810000000000D+02  .240625000000D+02  .491841915761D-08 -.842843616528D+00
     .125914812088D-05  .174858038081D-01  .116191804409D-04  .515378467560D+04
     .194400000000D+06  .271946191788D-06  .270664755233D+00  .363215804100D-06
     .932364575516D+00  .140500000000D+03 -.239095387433D+01 -.830070290045D-08
    -.440375486264D-09  .100000000000D+01  .162800000000D+04  .000000000000D+00
     .240000000000D+01  .000000000000D+00 -.116415321827D-07  .810000000000D+02
     .187206000000D+06  .400000000000D+01
22 11  3 22  6  0  0.0  .151398126036D-03 -.454747350886D-12  .000000000000D+00
     .910000000000D+02  .127187500000D+03  .515450041992D-08 -.292522331143D+01
     .652857124805D-05  .541984988376D-02  .499375164509D-05  .515371047974D+04
     .194400000000D+06 -.167638063431D-07  .132952365556D+01  .279396772385D-07
     .931242337410D+00  .268968750000D+03 -.196274430393D+01 -.840142138149D-08
     .338228374284D-09  .100000000000D+01  .162800000000D+04  .000000000000D+00
     .340000000000D+01  .000000000000D+00 -.172294676304D-07  .910000000000D+02
     .187206000000D+06  .400000000000D+01
23 11  3 22  6  0  0.0  .318510457873D-03 -.250111042988D-11  .000000000000D+00
     .930000000000D+02 -.633750000000D+02  .479269963518D-08  .168179561203D+01
    -.321492552757D-05  .704611605033D-02  .177882611752D-05  .515357480049D+04
     .194400000000D+06 -.558793544769D-07  .236673235433D+01  .113621354103D-06
     .964947617393D+00  .348375000000D+03  .312924646910D+01 -.855964225774D-08
    -.336799743347D-09  .100000000000D+01  .162800000000D+04  .000000000000D+00
     .240000000000D+01  .000000000000D+00 -.200234353542D-07  .930000000000D+02
     .187206000000D+06  .400000000000D+01
25 11  3 22  6  0  0.0 -.713719055057D-04 -.568434188608D-12  .000000000000D+00
     .380000000000D+02  .392500000000D+02  .473698302864D-08 -.176508358910D+01
     .200420618057D-05  .523647526279D-03  .856444239616D-05  .515367763901D+04
     .194400000000D+06 -.167638063431D-07 -.184750637740D+01 -.223517417908D-07
     .962853204392D+00  .218000000000D+03  .873497743864D+00 -.811248077453D-08
     .595381942905D-09  .100000000000D+01  .162800000000D+04  .000000000000D+00
     .240000000000D+01  .630000000000D+02  .465661287308D-08  .380000000000D+02
     .187206000000D+06  .400000000000D+01
26 11  3 22  6  0  0.0 -.151608139277D-03 -.101181285572D-10  .000000000000D+00
     .720000000000D+02 -.575000000000D+02  .427517807833D-08  .135536871474D+01
    -.328570604324D-05  .204255762510D-01  .328011810780D-05  .515364291763D+04
     .194400000000D+06 -.348314642906D-06  .243026945247D+01 -.819563865662D-07
     .987874664099D+00  .335875000000D+03  .112987775798D+01 -.842213653008D-08
    -.313941648358D-09  .100000000000D+01  .162800000000D+04  .000000000000D+00
     .240000000000D+01  .000000000000D+00 -.651925802231D-08  .720000000000D+02
     .187206000000D+06  .400000000000D+01
27 11  3 22  6  0  0.0  .247966963798D-03  .375166564481D-11  .000000000000D+00
     .110000000000D+03 -.101031250000D+03  .380301555372D-08  .236282469240D+01
    -.520050525665D-05  .216903898399D-01  .105686485767D-04  .515370255470D+04
     .194400000000D+06  .303611159325D-06 -.292757113549D+01 -.447034835815D-07
     .980976038367D+00  .183843750000D+03 -.127579999330D+01 -.736852121420D-08
    -.186079179516D-09  .100000000000D+01  .162800000000D+04  .000000000000D+00
     .340000000000D+01  .000000000000D+00 -.419095158577D-08  .110000000000D+03
     .187206000000D+06  .400000000000D+01
28 11  3 22  6  0  0.0  .266605056822D-04  .227373675443D-11  .000000000000D+00
     .630000000000D+02  .299375000000D+02  .442554148442D-08 -.283500468681D+01
     .149756669998D-05  .169697755482D-01  .813230872154D-05  .515369031143D+04
     .194400000000D+06  .365078449249D-06 -.179334760381D+01 -.875443220139D-07
     .973385158336D+00  .225625000000D+03 -.189623659848D+01 -.773425073402D-08
     .695743266214D-09  .100000000000D+01  .162800000000D+04  .000000000000D+00
     .240000000000D+01  .000000000000D+00 -.107102096081D-07  .630000000000D+02
     .187206000000D+06  .400000000000D+01
